"{\n    \"CCSDS_OMM_VERS\": \"2.0\",\n    \"COMMENT\": \"GENERATED VIA SPACE-TRACK.ORG API\",\n    \"CREATION_DATE\": \"2025-08-26T22:27:06\",\n    \"ORIGINATOR\": \"18 SPCS\",\n    \"OBJECT_NAME\": \"BEIDOU 3M4\",\n    \"OBJECT_ID\": \"2018-003B\",\n    \"CENTER_NAME\": \"EARTH\",\n    \"REF_FRAME\": \"TEME\",\n    \"TIME_SYSTEM\": \"UTC\",\n    \"MEAN_ELEMENT_THEORY\": \"SGP4\",\n    \"EPOCH\": \"2025-08-25T23:19:02.828064\",\n    \"MEAN_MOTION\": \"1.8623108301\",\n    \"ECCENTRICITY\": \"0.0004334446\",\n    \"INCLINATION\": \"54.581757\",\n    \"RA_OF_ASC_NODE\": \"312.58079\",\n    \"ARG_OF_PERICENTER\": \"253.47517\",\n    \"MEAN_ANOMALY\": \"106.5432\",\n    \"EPHEMERIS_TYPE\": \"0\",\n    \"CLASSIFICATION_TYPE\": \"U\",\n    \"NORAD_CAT_ID\": \"43108\",\n    \"ELEMENT_SET_NO\": \"999\",\n    \"REV_AT_EPOCH\": \"5186\",\n    \"BSTAR\": \"0\",\n    \"MEAN_MOTION_DOT\": \"-0.000000856791\",\n    \"MEAN_MOTION_DDOT\": \"0\",\n    \"TLE_LINE0\": \"0 BEIDOU 3M4\",\n    \"TLE_LINE1\": \"1 43108U 18003B   25237.97156051 -.00000086  00000-0  00000-0 0  9996\",\n    \"TLE_LINE2\": \"2 43108  54.5818 312.5808 0004334 253.4752 106.5432  1.86231083 51861\",\n    \"SEMIMAJOR_AXIS\": \"27906.180\",\n    \"PERIOD\": \"773.233\",\n    \"APOAPSIS\": \"21540.141\",\n    \"PERIAPSIS\": \"21515.949\",\n    \"OBJECT_TYPE\": \"PAYLOAD\",\n    \"DECAYED\": \"0\"\n}"